OBJECT_NAME,OBJECT_ID,EPOCH,MEAN_MOTION,ECCENTRICITY,INCLINATION,RA_OF_ASC_NODE,ARG_OF_PERICENTER,MEAN_ANOMALY,EPHEMERIS_TYPE,CLASSIFICATION_TYPE,NORAD_CAT_ID,ELEMENT_SET_NO,REV_AT_EPOCH,BSTAR,MEAN_MOTION_DOT,MEAN_MOTION_DDOT
ONEWEB-0636,2023-043AH,2026-06-15T23:53:19.458240,13.15549503,.0001984,87.9007,259.4353,94.6847,265.4509,0,U,56077,999,15625,.51118E-4,.32E-6,0
ONEWEB-0637,2023-043AJ,2026-06-15T23:44:12.202368,13.15548965,.0002271,87.8999,259.4532,96.5145,263.6244,0,U,56078,999,15627,-.27993E-3,-.93E-6,0
ONEWEB-0647,2023-043AK,2026-06-15T16:19:16.359744,13.15548769,.00018229,87.9002,259.5273,97.9546,262.1791,0,U,56079,999,15622,-.34369079E-3,-.117E-5,0
ONEWEB-0651,2023-043AL,2026-06-16T04:59:04.763328,13.15549165,.0002093,87.9000,259.4157,94.2394,265.8975,0,U,56080,999,15749,-.68184E-4,-.13E-6,0
ONEWEB-0718,2023-043AM,2026-06-16T04:52:12.523008,13.15546891,.0002371,87.8998,259.3972,109.9546,250.1840,0,U,56081,999,15630,-.21701E-3,-.69E-6,0
ONEWEB-0561,2023-068A,2026-06-16T01:28:18.878304,13.20772871,.0001747,87.9194,274.6675,90.7886,269.3448,0,U,56710,999,14935,-.25897E-3,-.92E-6,0
ONEWEB-0668,2023-068B,2026-06-15T16:20:37.786560,13.16594248,.00026071,87.9095,229.0715,100.1073,260.0352,0,U,56711,999,15158,-.54549492E-4,-.8E-7,0
ONEWEB-0676,2023-068C,2026-06-16T03:28:37.602624,13.16593196,.0002025,87.9099,228.9855,88.8314,271.3049,0,U,56712,999,15156,.29532E-3,.126E-5,0
ONEWEB-0677,2023-068D,2026-06-16T04:49:30.363168,13.20770084,.0002259,87.9194,274.6312,92.5065,267.6327,0,U,56713,999,14967,.14407E-4,.19E-6,0
ONEWEB-0678,2023-068E,2026-06-16T00:27:33.047136,13.15548021,.0001684,87.9011,259.4258,101.8994,258.2325,0,U,56714,999,14913,.36088E-3,.149E-5,0
ONEWEB-0679,2023-068F,2026-06-16T04:18:47.729376,13.16594719,.0002557,87.9098,228.9699,90.5192,269.6232,0,U,56715,999,15159,.19111E-3,.86E-6,0
ONEWEB-0680,2023-068G,2026-06-16T04:30:02.331936,13.21827953,.0002622,87.9263,244.1698,98.0527,262.0905,0,U,56716,999,15096,.88859E-4,.5E-6,0
ONEWEB-0681,2023-068H,2026-06-16T04:02:11.152032,13.21827585,.0002014,87.9257,244.1750,71.4205,288.7147,0,U,56717,999,15095,.23648E-3,.111E-5,0
ONEWEB-0682,2023-068J,2026-06-16T04:40:49.771200,13.15549121,.0002548,87.9007,259.3915,99.0216,261.1203,0,U,56718,999,14932,-.1262E-4,.8E-7,0
ONEWEB-0683,2023-068K,2026-06-15T23:46:29.231904,13.15549025,.0002269,87.9012,259.4319,103.1459,256.9924,0,U,56719,999,14926,-.19913E-3,-.62E-6,0
ONEWEB-0684,2023-068L,2026-06-15T23:57:53.584704,13.15547918,.0001477,87.9006,259.4203,142.9684,217.1548,0,U,56720,999,14909,.10108E-3,.51E-6,0
ONEWEB-0686,2023-068M,2026-06-15T21:53:29.859360,13.16594236,.0002219,87.9088,229.0466,106.4791,253.6584,0,U,56721,999,15154,.95157E-4,.49E-6,0
ONEWEB-0694,2023-068N,2026-06-16T03:30:55.147104,13.16594334,.0002513,87.9109,228.9644,99.1506,260.9909,0,U,56722,999,15163,.28798E-3,.123E-5,0
ONEWEB-0696,2023-068P,2026-06-16T04:24:49.912992,13.15547023,.0001496,87.9004,259.4219,102.1520,257.9778,0,U,56723,999,14923,.30216E-3,.127E-5,0
ONEWEB-0703,2023-068Q,2026-06-16T04:38:32.606016,13.15548797,.0001147,87.9003,259.4010,87.8524,272.2738,0,U,56724,999,14912,-.6461E-4,-.12E-6,0
ONEWEB-0721,2023-068R,2026-06-16T03:45:06.372000,13.22469069,.0001893,86.6766,85.8452,77.6945,282.4400,0,U,56725,999,15780,-.38639E-4,-.2E-7,0
ONEWEB-0015,2024-188A,2026-06-16T02:07:43.794048,13.11417124,.0002195,87.8886,21.3120,74.1256,286.0114,0,U,61594,999,8431,-.17988E-2,-.625E-5,0
ONEWEB-0687,2024-188B,2026-06-16T02:12:06.215904,13.17648419,.0002336,87.9129,6.0946,87.3041,272.8357,0,U,61595,999,8575,.13248E-3,.64E-6,0
ONEWEB-0688,2024-188C,2026-06-16T01:04:04.003392,13.17648759,.0002727,87.9129,6.1039,65.2961,294.8454,0,U,61596,999,8574,.87186E-4,.47E-6,0
ONEWEB-0689,2024-188D,2026-06-15T23:16:50.464128,13.11418478,.0002047,87.8902,21.2932,91.6254,268.5108,0,U,61597,999,8429,.16432E-2,.595E-5,0
ONEWEB-0690,2024-188E,2026-06-16T03:11:14.084160,13.11414430,.0001242,87.8895,21.2726,71.7922,288.3341,0,U,61598,999,8449,.10835E-2,.397E-5,0
ONEWEB-0691,2024-188F,2026-06-15T23:24:11.231136,13.11415507,.0002134,87.8905,21.2126,79.2541,280.8827,0,U,61599,999,8432,.12E-2,.438E-5,0
ONEWEB-0692,2024-188G,2026-06-16T03:33:11.566656,13.11414003,.0001845,87.8885,21.2916,111.0794,249.0532,0,U,61600,999,8433,-.72998E-3,-.246E-5,0
ONEWEB-0693,2024-188H,2026-06-15T23:31:43.416768,13.17647940,.0001323,87.9123,6.1367,65.1894,294.9375,0,U,61601,999,8572,.32945E-4,.26E-6,0
ONEWEB-0695,2024-188J,2026-06-15T23:19:18.069024,13.11415338,.0002039,87.8885,21.3186,99.8021,260.3337,0,U,61602,999,8430,.13747E-2,.5E-5,0
ONEWEB-0697,2024-188K,2026-06-16T03:45:23.589792,13.11415210,.0001739,87.8886,21.2719,110.5552,249.5763,0,U,61603,999,8431,-.1416E-2,-.489E-5,0
