ONEWEB-0636             
1 56077U 23043AH  26166.99536410  .00000032  00000+0  51118-4 0  9999
2 56077  87.9007 259.4353 0001984  94.6847 265.4509 13.15549503156255
ONEWEB-0637             
1 56078U 23043AJ  26166.98903012 -.00000093  00000+0 -27993-3 0  9997
2 56078  87.8999 259.4532 0002271  96.5145 263.6244 13.15548965156275
ONEWEB-0647             
1 56079U 23043AK  26166.68005046 -.00000117  00000+0 -34369-3 0  9997
2 56079  87.9002 259.5273 0001822  97.9546 262.1791 13.15548769156224
ONEWEB-0651             
1 56080U 23043AL  26167.20769402 -.00000013  00000+0 -68184-4 0  9999
2 56080  87.9000 259.4157 0002093  94.2394 265.8975 13.15549165157491
ONEWEB-0718             
1 56081U 23043AM  26167.20292272 -.00000069  00000+0 -21701-3 0  9990
2 56081  87.8998 259.3972 0002371 109.9546 250.1840 13.15546891156303
ONEWEB-0561             
1 56710U 23068A   26167.06132961 -.00000092  00000+0 -25897-3 0  9994
2 56710  87.9194 274.6675 0001747  90.7886 269.3448 13.20772871149359
ONEWEB-0668             
1 56711U 23068B   26166.68099290 -.00000008  00000+0 -54549-4 0  9993
2 56711  87.9095 229.0715 0002607 100.1073 260.0352 13.16594248151584
ONEWEB-0676             
1 56712U 23068C   26167.14487966  .00000126  00000+0  29532-3 0  9999
2 56712  87.9099 228.9855 0002025  88.8314 271.3049 13.16593196151563
ONEWEB-0677             
1 56713U 23068D   26167.20104587  .00000019  00000+0  14407-4 0  9999
2 56713  87.9194 274.6312 0002259  92.5065 267.6327 13.20770084149674
ONEWEB-0678             
1 56714U 23068E   26167.01913249  .00000149  00000+0  36088-3 0  9994
2 56714  87.9011 259.4258 0001684 101.8994 258.2325 13.15548021149132
ONEWEB-0679             
1 56715U 23068F   26167.17971909  .00000086  00000+0  19111-3 0  9997
2 56715  87.9098 228.9699 0002557  90.5192 269.6232 13.16594719151594
ONEWEB-0680             
1 56716U 23068G   26167.18752699  .00000050  00000+0  88859-4 0  9999
2 56716  87.9263 244.1698 0002622  98.0527 262.0905 13.21827953150965
ONEWEB-0681             
1 56717U 23068H   26167.16818463  .00000111  00000+0  23648-3 0  9992
2 56717  87.9257 244.1750 0002014  71.4205 288.7147 13.21827585150954
ONEWEB-0682             
1 56718U 23068J   26167.19502050  .00000008  00000+0 -12620-4 0  9993
2 56718  87.9007 259.3915 0002548  99.0216 261.1203 13.15549121149326
ONEWEB-0683             
1 56719U 23068K   26166.99061611 -.00000062  00000+0 -19913-3 0  9996
2 56719  87.9012 259.4319 0002269 103.1459 256.9924 13.15549025149266
ONEWEB-0684             
1 56720U 23068L   26166.99853686  .00000051  00000+0  10108-3 0  9992
2 56720  87.9006 259.4203 0001477 142.9684 217.1548 13.15547918149095
ONEWEB-0686             
1 56721U 23068M   26166.91215115  .00000049  00000+0  95157-4 0  9999
2 56721  87.9088 229.0466 0002219 106.4791 253.6584 13.16594236151543
ONEWEB-0694             
1 56722U 23068N   26167.14647161  .00000123  00000+0  28798-3 0  9995
2 56722  87.9109 228.9644 0002513  99.1506 260.9909 13.16594334151634
ONEWEB-0696             
1 56723U 23068P   26167.18391103  .00000127  00000+0  30216-3 0  9994
2 56723  87.9004 259.4219 0001496 102.1520 257.9778 13.15547023149231
ONEWEB-0703             
1 56724U 23068Q   26167.19343294 -.00000012  00000+0 -64610-4 0  9995
2 56724  87.9003 259.4010 0001147  87.8524 272.2738 13.15548797149129
ONEWEB-0721             
1 56725U 23068R   26167.15632375 -.00000002  00000+0 -38639-4 0  9994
2 56725  86.6766  85.8452 0001893  77.6945 282.4400 13.22469069157800
ONEWEB-0015             
1 61594U 24188A   26167.08870132 -.00000625  00000+0 -17988-2 0  9998
2 61594  87.8886  21.3120 0002195  74.1256 286.0114 13.11417124 84316
ONEWEB-0687             
1 61595U 24188B   26167.09173861  .00000064  00000+0  13248-3 0  9996
2 61595  87.9129   6.0946 0002336  87.3041 272.8357 13.17648419 85759
ONEWEB-0688             
1 61596U 24188C   26167.04449078  .00000047  00000+0  87186-4 0  9992
2 61596  87.9129   6.1039 0002727  65.2961 294.8454 13.17648759 85742
ONEWEB-0689             
1 61597U 24188D   26166.97002852  .00000595  00000+0  16432-2 0  9991
2 61597  87.8902  21.2932 0002047  91.6254 268.5108 13.11418478 84294
ONEWEB-0690             
1 61598U 24188E   26167.13280190  .00000397  00000+0  10835-2 0  9995
2 61598  87.8895  21.2726 0001242  71.7922 288.3341 13.11414430 84499
ONEWEB-0691             
1 61599U 24188F   26166.97512999  .00000438  00000+0  12000-2 0  9994
2 61599  87.8905  21.2126 0002134  79.2541 280.8827 13.11415507 84321
ONEWEB-0692             
1 61600U 24188G   26167.14805054 -.00000246  00000+0 -72998-3 0  9996
2 61600  87.8885  21.2916 0001845 111.0794 249.0532 13.11414003 84332
ONEWEB-0693             
1 61601U 24188H   26166.98036362  .00000026  00000+0  32945-4 0  9999
2 61601  87.9123   6.1367 0001323  65.1894 294.9375 13.17647940 85724
ONEWEB-0695             
1 61602U 24188J   26166.97173691  .00000500  00000+0  13747-2 0  9990
2 61602  87.8885  21.3186 0002039  99.8021 260.3337 13.11415338 84304
ONEWEB-0697             
1 61603U 24188K   26167.15652303 -.00000489  00000+0 -14160-2 0  9992
2 61603  87.8886  21.2719 0001739 110.5552 249.5763 13.11415210 84315
